NORAD_CAT_ID,OBJECT_NAME,OBJECT_TYPE,EPOCH,MEAN_MOTION,ECCENTRICITY,INCLINATION,RA_OF_ASC_NODE,ARG_OF_PERICENTER,MEAN_ANOMALY,BSTAR,MEAN_MOTION_DOT,MEAN_MOTION_DDOT,TLE_LINE0,TLE_LINE1,TLE_LINE2,SEMIMAJOR_AXIS,PERIOD,APOGEE,PERIGEE,DECAYED
55647.0,STARLINK-5510,PAYLOAD,2023-10-04 08:59:27,14.98324321,0.0002912,69.999,261.5469,268.3923,91.6902,0.00010393,1.147e-05,0.0,0 STARLINK-5510,1 55647U 23021V   23277.37461947  .00001147  00000-0  10393-3 0  9999,2 55647  69.9990 261.5469 0002912 268.3923  91.6902 14.98324321 35586,6950.21,96.107,574.099,570.052,0.0
55647.0,STARLINK-5510,PAYLOAD,2023-10-04 17:00:07,14.98317763,0.0002922,69.999,260.7052,277.421,82.6617,0.00023367,2.695e-05,0.0,0 STARLINK-5510,1 55647U 23021V   23277.70842225  .00002695  00000-0  23367-3 0  9992,2 55647  69.9990 260.7052 0002922 277.4210  82.6617 14.98317763 35930,6950.231,96.108,574.127,570.065,0.0
55647.0,STARLINK-5510,PAYLOAD,2023-10-05 09:01:27,14.98333509,0.0002958,69.9993,259.023,271.0081,89.0739,5.9977e-05,6.23e-06,0.0,0 STARLINK-5510,1 55647U 23021V   23278.37601492  .00000623  00000-0  59977-4 0  9991,2 55647  69.9993 259.0230 0002958 271.0081  89.0739 14.98333509 35737,6950.182,96.107,574.103,569.991,0.0
55647.0,STARLINK-5510,PAYLOAD,2023-10-06 09:03:28,14.98334783,0.0002716,69.9998,256.4993,268.66,91.4248,6.0388e-05,6.28e-06,0.0,0 STARLINK-5510,1 55647U 23021V   23279.37741360  .00000628  00000-0  60388-4 0  9994,2 55647  69.9998 256.4993 0002716 268.6600  91.4248 14.98334783 35883,6950.178,96.107,573.931,570.155,0.0
55647.0,STARLINK-5510,PAYLOAD,2023-10-06 21:52:33,14.98331361,0.0002578,69.9998,255.1526,270.5474,89.539,-6.4408e-06,-1.7e-06,0.0,0 STARLINK-5510,1 55647U 23021V   23279.91149736 -.00000170  00000-0 -64408-5 0  9995,2 55647  69.9998 255.1526 0002578 270.5474  89.5390 14.98331361 36266,6950.189,96.107,573.845,570.262,0.0
55647.0,STARLINK-5510,PAYLOAD,2023-10-07 01:04:49,14.98332164,0.0002581,69.9997,254.8157,270.5566,89.5297,-6.4839e-05,-8.67e-06,0.0,0 STARLINK-5510,1 55647U 23021V   23280.04501825 -.00000867  00000-0 -64839-4 0  9992,2 55647  69.9997 254.8157 0002581 270.5566  89.5297 14.98332164 35983,6950.186,96.107,573.845,570.257,0.0
55647.0,STARLINK-5510,PAYLOAD,2023-10-07 21:54:34,14.9832713,0.0002835,70.0002,252.6278,264.9158,95.1678,-3.1251e-06,-1.3e-06,0.0,0 STARLINK-5510,1 55647U 23021V   23280.91289850 -.00000130  00000-0 -31251-5 0  9995,2 55647  70.0002 252.6278 0002835 264.9158  95.1678 14.98327130 36411,6950.202,96.107,574.037,570.096,0.0
55647.0,STARLINK-5510,PAYLOAD,2023-10-08 02:42:58,14.98326374,0.0003009,69.9995,252.1224,267.5509,92.5305,-5.449e-05,-7.43e-06,0.0,0 STARLINK-5510,1 55647U 23021V   23281.11318063 -.00000743  00000-0 -54490-4 0  9996,2 55647  69.9995 252.1224 0003009 267.5509  92.5305 14.98326374 36145,6950.204,96.107,574.16,569.978,0.0
55647.0,STARLINK-5510,PAYLOAD,2023-10-08 07:31:22,14.98333045,0.0003021,69.9995,251.6171,268.4035,91.6778,3.5882e-05,3.35e-06,0.0,0 STARLINK-5510,1 55647U 23021V   23281.31345403  .00000335  00000-0  35882-4 0  9995,2 55647  69.9995 251.6171 0003021 268.4035  91.6778 14.98333045 36178,6950.183,96.107,574.148,569.949,0.0
55647.0,STARLINK-5510,PAYLOAD,2023-10-08 15:32:02,14.98332677,0.0003088,69.9994,250.7752,268.5764,91.5041,-3.2809e-05,-4.84e-06,0.0,0 STARLINK-5510,1 55647U 23021V   23281.64725523 -.00000484  00000-0 -32809-4 0  9999,2 55647  69.9994 250.7752 0003088 268.5764  91.5041 14.98332677 36526,6950.185,96.107,574.196,569.903,0.0
55647.0,STARLINK-5510,PAYLOAD,2023-10-09 07:33:23,14.98335577,0.0003048,69.9996,249.0918,268.8848,91.1962,9.6724e-05,1.061e-05,0.0,0 STARLINK-5510,1 55647U 23021V   23282.31485013  .00001061  00000-0  96724-4 0  9997,2 55647  69.9996 249.0918 0003048 268.8848  91.1962 14.98335577 36323,6950.176,96.107,574.159,569.922,0.0
55647.0,STARLINK-5510,PAYLOAD,2023-10-09 15:34:03,14.98330811,0.0002847,70.0,248.249,271.1589,88.9244,3.0442e-05,2.7e-06,0.0,0 STARLINK-5510,1 55647U 23021V   23282.64865467  .00000270  00000-0  30442-4 0  9994,2 55647  70.0000 248.2490 0002847 271.1589  88.9244 14.98330811 36371,6950.19,96.107,574.034,570.077,0.0
55647.0,STARLINK-5510,PAYLOAD,2023-10-09 21:58:36,14.98325674,0.0002979,69.9999,247.5754,269.0167,91.065,8.4797e-05,9.19e-06,0.0,0 STARLINK-5510,1 55647U 23021V   23282.91569598  .00000919  00000-0  84797-4 0  9992,2 55647  69.9999 247.5754 0002979 269.0167  91.0650 14.98325674 36719,6950.206,96.107,574.142,570.001,0.0
55647.0,STARLINK-5510,PAYLOAD,2023-10-10 09:11:32,14.98333226,0.0002843,70.0002,246.3994,270.4336,89.6498,0.00010756,1.191e-05,0.0,0 STARLINK-5510,1 55647U 23021V   23283.38301143  .00001191  00000-0  10756-3 0  9990,2 55647  70.0002 246.3994 0002843 270.4336  89.6498 14.98333226 36786,6950.183,96.107,574.024,570.072,0.0
55647.0,STARLINK-5510,PAYLOAD,2023-10-10 15:36:05,14.98325663,0.0002246,70.0017,245.7268,277.4008,82.6896,-2.0413e-06,-1.17e-06,0.0,0 STARLINK-5510,1 55647U 23021V   23283.65006142 -.00000117  00000-0 -20413-5 0  9993,2 55647  70.0017 245.7268 0002246 277.4008  82.6896 14.98325663 36522,6950.206,96.107,573.632,570.51,0.0
55647.0,STARLINK-5510,PAYLOAD,2023-10-10 22:00:37,14.98328912,0.0002552,70.0013,245.0533,275.9724,84.1144,-3.8652e-06,-1.39e-06,0.0,0 STARLINK-5510,1 55647U 23021V   23283.91709839 -.00000139  00000-0 -38652-5 0  9993,2 55647  70.0013 245.0533 0002552 275.9724  84.1144 14.98328912 36864,6950.196,96.107,573.835,570.288,0.0
55647.0,STARLINK-5510,PAYLOAD,2023-10-11 07:37:25,14.98331462,0.0002905,70.0002,244.0424,268.4725,91.6102,-9.7041e-06,-2.09e-06,0.0,0 STARLINK-5510,1 55647U 23021V   23284.31765617 -.00000209  00000-0 -97041-5 0  9999,2 55647  70.0002 244.0424 0002905 268.4725  91.6102 14.98331462 36625,6950.188,96.107,574.072,570.034,0.0
55647.0,STARLINK-5510,PAYLOAD,2023-10-12 14:03:58,14.9833277,0.0002515,70.0013,240.8439,278.0687,82.0186,1.1248e-05,4.1e-07,0.0,0 STARLINK-5510,1 55647U 23021V   23285.58609701  .00000041  00000-0  11248-4 0  9996,2 55647  70.0013 240.8439 0002515 278.0687  82.0186 14.98332770 37112,6950.184,96.107,573.797,570.301,0.0
55647.0,STARLINK-5510,PAYLOAD,2023-10-12 22:04:39,14.98330086,0.0002733,70.0006,240.0024,269.3524,90.7322,7.0513e-05,7.48e-06,0.0,0 STARLINK-5510,1 55647U 23021V   23285.91989663  .00000748  00000-0  70513-4 0  9995,2 55647  70.0006 240.0024 0002733 269.3524  90.7322 14.98330086 37162,6950.193,96.107,573.957,570.158,0.0
55647.0,STARLINK-5510,PAYLOAD,2023-10-13 14:05:58,14.9836545,0.0002739,70.0009,238.3183,275.0901,84.9946,-0.00043147,-5.242e-05,0.0,0 STARLINK-5510,1 55647U 23021V   23286.58748279 -.00005242  00000-0 -43147-3 0  9993,2 55647  70.0009 238.3183 0002739 275.0901  84.9946 14.98365450 37261,6950.083,96.105,573.852,570.045,0.0
55647.0,STARLINK-5510,PAYLOAD,2023-10-13 22:06:39,14.9833269,0.0002553,70.0008,237.4782,265.8203,94.2664,0.00010926,1.211e-05,0.0,0 STARLINK-5510,1 55647U 23021V   23286.92129180  .00001211  00000-0  10926-3 0  9994,2 55647  70.0008 237.4782 0002553 265.8203  94.2664 14.98332690 37318,6950.185,96.107,573.824,570.275,0.0
55647.0,STARLINK-5510,PAYLOAD,2023-10-14 04:31:11,14.98336785,0.0002418,70.0008,236.8052,257.0056,103.0833,0.00013475,1.515e-05,0.0,0 STARLINK-5510,1 55647U 23021V   23287.18832764  .00001515  00000-0  13475-3 0  9991,2 55647  70.0008 236.8052 0002418 257.0056 103.0833 14.98336785 37057,6950.172,96.107,573.717,570.356,0.0
55647.0,STARLINK-5510,PAYLOAD,2023-10-14 14:08:00,14.98328448,0.0002463,70.0027,235.795,276.046,84.0419,-2.403e-05,-3.8e-06,0.0,0 STARLINK-5510,1 55647U 23021V   23287.58889651 -.00000380  00000-0 -24030-4 0  9993,2 55647  70.0027 235.7950 0002463 276.0460  84.0419 14.98328448 37418,6950.198,96.107,573.775,570.351,0.0
55647.0,STARLINK-5510,PAYLOAD,2023-10-14 22:08:42,14.98312495,0.0002836,70.001,234.9539,269.1767,90.9067,-0.00021981,-2.713e-05,0.0,0 STARLINK-5510,1 55647U 23021V   23287.92271148 -.00002713  00000-0 -21981-3 0  9990,2 55647  70.0010 234.9539 0002836 269.1767  90.9067 14.98312495 37466,6950.247,96.108,574.083,570.141,0.0
55647.0,STARLINK-5510,PAYLOAD,2023-10-15 04:33:14,14.98317047,0.0002826,70.0003,234.2794,269.6787,90.4048,-0.00019662,-2.437e-05,0.0,0 STARLINK-5510,1 55647U 23021V   23288.18975028 -.00002437  00000-0 -19662-3 0  9993,2 55647  70.0003 234.2794 0002826 269.6787  90.4048 14.98317047 37204,6950.233,96.108,574.062,570.134,0.0
55647.0,STARLINK-5510,PAYLOAD,2023-10-15 14:10:02,14.98327442,0.0002879,70.0007,233.2716,265.8749,94.2081,-0.0001059,-1.356e-05,0.0,0 STARLINK-5510,1 55647U 23021V   23288.59030312 -.00001356  00000-0 -10590-3 0  9996,2 55647  70.0007 233.2716 0002879 265.8749  94.2081 14.98327442 37563,6950.201,96.107,574.067,570.065,0.0
55647.0,STARLINK-5510,PAYLOAD,2023-10-15 20:34:34,14.98324894,0.0003261,69.9995,232.5986,268.7569,91.3216,3.7942e-07,-8.9e-07,0.0,0 STARLINK-5510,1 55647U 23021V   23288.85734165 -.00000089  00000-0  37942-6 0  9996,2 55647  69.9995 232.5986 0003261 268.7569  91.3216 14.98324894 37303,6950.209,96.107,574.34,569.807,0.0
55647.0,STARLINK-5510,PAYLOAD,2023-10-15 22:10:41,14.98332295,0.0002904,70.0006,232.4296,269.7111,90.3715,2.6635e-05,2.25e-06,0.0,0 STARLINK-5510,1 55647U 23021V   23288.92409704  .00000225  00000-0  26635-4 0  9998,2 55647  70.0006 232.4296 0002904 269.7111  90.3715 14.98332295 37610,6950.186,96.107,574.069,570.032,0.0
55647.0,STARLINK-5510,PAYLOAD,2023-10-16 06:11:21,14.9834236,0.0002897,70.0004,231.5881,264.764,95.3189,6.8074e-05,7.2e-06,0.0,0 STARLINK-5510,1 55647U 23021V   23289.25788915  .00000720  00000-0  68074-4 0  9992,2 55647  70.0004 231.5881 0002897 264.7640  95.3189 14.98342360 37367,6950.155,96.106,574.033,570.006,0.0
55647.0,STARLINK-5510,PAYLOAD,2023-10-17 06:13:23,14.9832791,0.0003098,70.0004,229.0631,270.2154,89.865,0.00021134,2.429e-05,0.0,0 STARLINK-5510,1 55647U 23021V   23290.25929458  .00002429  00000-0  21134-3 0  9996,2 55647  70.0004 229.0631 0003098 270.2154  89.8650 14.98327910 37510,6950.199,96.107,574.218,569.911,0.0
